AUTCUBE 2               
1 43681U 18084K   26073.51995044  .00005711  00000+0  36165-3 0  9995
2 43681  98.0792 274.6697 0009257  11.1873 348.9559 15.09371169402645
METOP-C                 
1 43689U 18087A   26073.60774004  .00000132  00000+0  80259-4 0  9993
2 43689  98.6755 134.8969 0002195  93.1048 267.0381 14.21498793381393
ES'HAIL 2               
1 43700U 18090A   26073.57357547  .00000143  00000+0  00000+0 0  9999
2 43700   0.0143 132.0856 0001088 219.1213  53.2689  1.00272024 26723
MOHAMMED VI-B           
1 43717U 18095A   26072.11858878  .00001044  00000+0  15481-3 0  9998
2 43717  97.9410 145.8081 0001250  93.4767 266.6586 14.77136797394002
HYSIS                   
1 43719U 18096A   26073.60844074  .00001528  00000+0  21555-3 0  9995
2 43719  97.9933 141.0596 0001834  94.9623 265.1797 14.78672689393449
COSMOS 2530 (RODNIK-S *)
1 43751U 18097A   26073.63106488  .00000038  00000+0  20265-3 0  9997
2 43751  82.5110 280.9837 0018850 241.4296 118.4887 12.42878280330540
COSMOS 2531 (RODNIK-S *)
1 43752U 18097B   26073.65572863  .00000034  00000+0  17581-3 0  9997
2 43752  82.5157 281.9952 0015937 261.2408  98.6867 12.42909447330568
COSMOS 2532 (RODNIK-S *)
1 43753U 18097C   26073.60325463  .00000077  00000+0  48862-3 0  9998
2 43753  82.5099 280.8564 0017305 263.6359  96.2750 12.42906097330522
MINXSS-2                
1 43758U 18099A   26073.45823881  .00038449  00000+0  93985-3 0  9995
2 43758  97.4622 147.3863 0007785 240.0056 120.0418 15.40686409399511
SIRION PATHFINDER-2     
1 43759U 18099B   26073.54380758  .00007715  00000+0  43289-3 0  9991
2 43759  97.4388 124.8561 0007312 266.0289  94.0107 15.13606938398308
AISTECHSAT 2            
1 43768U 18099L   26073.37197711  .00006684  00000+0  36745-3 0  9990
2 43768  97.4429 123.4920 0003172 263.4364  96.6507 15.14405148397923
FOX-1CLIFF (AO-95)      
1 43770U 18099N   26072.12206546  .00013648  00000+0  55688-3 0  9997
2 43770  97.4510 132.8256 0008083 333.7998  26.2829 15.24512623398579
2018-099Q               
1 43772U 18099Q   26073.46034533  .00107451  00000+0  13888-2 0  9993
2 43772  97.4299 149.0590 0002802 199.8342 160.2805 15.58575878399799
RANGE-A                 
1 43773U 18099R   26073.60160745  .00007391  00000+0  42743-3 0  9990
2 43773  97.4102 118.9470 0009287 321.2149  38.8414 15.12518534398190
SNUSAT-2                
1 43782U 18099AA  26073.60345035  .00012722  00000+0  58794-3 0  9994
2 43782  97.4192 128.4901 0008962 264.9343  95.0869 15.20278037398652
SNUGLITE                
1 43784U 18099AC  26073.59447718  .00017271  00000+0  69433-3 0  9991
2 43784  97.4001 128.8990 0001441 243.2088 116.9003 15.24984409398896
