[{"OBJECT_NAME":"AUTCUBE 2","OBJECT_ID":"2018-084K","EPOCH":"2026-03-14T12:28:43.718016","MEAN_MOTION":15.09371169,"ECCENTRICITY":0.00092572,"INCLINATION":98.0792,"RA_OF_ASC_NODE":274.6697,"ARG_OF_PERICENTER":11.1873,"MEAN_ANOMALY":348.9559,"EPHEMERIS_TYPE":0,"CLASSIFICATION_TYPE":"U","NORAD_CAT_ID":43681,"ELEMENT_SET_NO":999,"REV_AT_EPOCH":40264,"BSTAR":0.00036164895,"MEAN_MOTION_DOT":5.711e-5,"MEAN_MOTION_DDOT":0},{"OBJECT_NAME":"METOP-C","OBJECT_ID":"2018-087A","EPOCH":"2026-03-14T14:35:08.739456","MEAN_MOTION":14.21498793,"ECCENTRICITY":0.00021958,"INCLINATION":98.6755,"RA_OF_ASC_NODE":134.8969,"ARG_OF_PERICENTER":93.1048,"MEAN_ANOMALY":267.0381,"EPHEMERIS_TYPE":0,"CLASSIFICATION_TYPE":"U","NORAD_CAT_ID":43689,"ELEMENT_SET_NO":999,"REV_AT_EPOCH":38139,"BSTAR":8.0259168e-5,"MEAN_MOTION_DOT":1.32e-6,"MEAN_MOTION_DDOT":0},{"OBJECT_NAME":"ES'HAIL 2","OBJECT_ID":"2018-090A","EPOCH":"2026-03-14T13:45:56.920608","MEAN_MOTION":1.00272024,"ECCENTRICITY":0.00010887,"INCLINATION":0.0143,"RA_OF_ASC_NODE":132.0856,"ARG_OF_PERICENTER":219.1213,"MEAN_ANOMALY":53.2689,"EPHEMERIS_TYPE":0,"CLASSIFICATION_TYPE":"U","NORAD_CAT_ID":43700,"ELEMENT_SET_NO":999,"REV_AT_EPOCH":2672,"BSTAR":0,"MEAN_MOTION_DOT":1.43e-6,"MEAN_MOTION_DDOT":0},{"OBJECT_NAME":"MOHAMMED VI-B","OBJECT_ID":"2018-095A","EPOCH":"2026-03-13T02:50:46.070592","MEAN_MOTION":14.77136797,"ECCENTRICITY":0.00012503,"INCLINATION":97.941,"RA_OF_ASC_NODE":145.8081,"ARG_OF_PERICENTER":93.4767,"MEAN_ANOMALY":266.6586,"EPHEMERIS_TYPE":0,"CLASSIFICATION_TYPE":"U","NORAD_CAT_ID":43717,"ELEMENT_SET_NO":999,"REV_AT_EPOCH":39400,"BSTAR":0.00015481387,"MEAN_MOTION_DOT":1.044e-5,"MEAN_MOTION_DDOT":0},{"OBJECT_NAME":"HYSIS","OBJECT_ID":"2018-096A","EPOCH":"2026-03-14T14:36:09.279936","MEAN_MOTION":14.78672689,"ECCENTRICITY":0.00018347,"INCLINATION":97.9933,"RA_OF_ASC_NODE":141.0596,"ARG_OF_PERICENTER":94.9623,"MEAN_ANOMALY":265.1797,"EPHEMERIS_TYPE":0,"CLASSIFICATION_TYPE":"U","NORAD_CAT_ID":43719,"ELEMENT_SET_NO":999,"REV_AT_EPOCH":39344,"BSTAR":0.00021555083,"MEAN_MOTION_DOT":1.528e-5,"MEAN_MOTION_DDOT":0},{"OBJECT_NAME":"COSMOS 2530 (RODNIK-S 16)","OBJECT_ID":"2018-097A","EPOCH":"2026-03-14T15:08:44.005632","MEAN_MOTION":12.4287828,"ECCENTRICITY":0.00188509,"INCLINATION":82.511,"RA_OF_ASC_NODE":280.9837,"ARG_OF_PERICENTER":241.4296,"MEAN_ANOMALY":118.4887,"EPHEMERIS_TYPE":0,"CLASSIFICATION_TYPE":"U","NORAD_CAT_ID":43751,"ELEMENT_SET_NO":999,"REV_AT_EPOCH":33054,"BSTAR":0.00020264954,"MEAN_MOTION_DOT":3.8e-7,"MEAN_MOTION_DDOT":0},{"OBJECT_NAME":"COSMOS 2531 (RODNIK-S 17)","OBJECT_ID":"2018-097B","EPOCH":"2026-03-14T15:44:14.953632","MEAN_MOTION":12.42909447,"ECCENTRICITY":0.00159379,"INCLINATION":82.5157,"RA_OF_ASC_NODE":281.9952,"ARG_OF_PERICENTER":261.2408,"MEAN_ANOMALY":98.6867,"EPHEMERIS_TYPE":0,"CLASSIFICATION_TYPE":"U","NORAD_CAT_ID":43752,"ELEMENT_SET_NO":999,"REV_AT_EPOCH":33056,"BSTAR":0.00017581376,"MEAN_MOTION_DOT":3.4e-7,"MEAN_MOTION_DDOT":0},{"OBJECT_NAME":"COSMOS 2532 (RODNIK-S 18)","OBJECT_ID":"2018-097C","EPOCH":"2026-03-14T14:28:41.200032","MEAN_MOTION":12.42906097,"ECCENTRICITY":0.00173054,"INCLINATION":82.5099,"RA_OF_ASC_NODE":280.8564,"ARG_OF_PERICENTER":263.6359,"MEAN_ANOMALY":96.275,"EPHEMERIS_TYPE":0,"CLASSIFICATION_TYPE":"U","NORAD_CAT_ID":43753,"ELEMENT_SET_NO":999,"REV_AT_EPOCH":33052,"BSTAR":0.00048862219,"MEAN_MOTION_DOT":7.7e-7,"MEAN_MOTION_DDOT":0},{"OBJECT_NAME":"MINXSS-2","OBJECT_ID":"2018-099A","EPOCH":"2026-03-14T10:59:51.833184","MEAN_MOTION":15.40686409,"ECCENTRICITY":0.00077853,"INCLINATION":97.4622,"RA_OF_ASC_NODE":147.3863,"ARG_OF_PERICENTER":240.0056,"MEAN_ANOMALY":120.0418,"EPHEMERIS_TYPE":0,"CLASSIFICATION_TYPE":"U","NORAD_CAT_ID":43758,"ELEMENT_SET_NO":999,"REV_AT_EPOCH":39951,"BSTAR":0.00093985,"MEAN_MOTION_DOT":0.00038449,"MEAN_MOTION_DDOT":0},{"OBJECT_NAME":"SIRION PATHFINDER-2","OBJECT_ID":"2018-099B","EPOCH":"2026-03-14T13:03:04.974912","MEAN_MOTION":15.13606938,"ECCENTRICITY":0.00073125,"INCLINATION":97.4388,"RA_OF_ASC_NODE":124.8561,"ARG_OF_PERICENTER":266.0289,"MEAN_ANOMALY":94.0107,"EPHEMERIS_TYPE":0,"CLASSIFICATION_TYPE":"U","NORAD_CAT_ID":43759,"ELEMENT_SET_NO":999,"REV_AT_EPOCH":39830,"BSTAR":0.00043288807,"MEAN_MOTION_DOT":7.715e-5,"MEAN_MOTION_DDOT":0},{"OBJECT_NAME":"AISTECHSAT 2","OBJECT_ID":"2018-099L","EPOCH":"2026-03-14T08:55:38.822304","MEAN_MOTION":15.14405148,"ECCENTRICITY":0.00031729,"INCLINATION":97.4429,"RA_OF_ASC_NODE":123.492,"ARG_OF_PERICENTER":263.4364,"MEAN_ANOMALY":96.6507,"EPHEMERIS_TYPE":0,"CLASSIFICATION_TYPE":"U","NORAD_CAT_ID":43768,"ELEMENT_SET_NO":999,"REV_AT_EPOCH":39792,"BSTAR":0.00036745104,"MEAN_MOTION_DOT":6.684e-5,"MEAN_MOTION_DDOT":0},{"OBJECT_NAME":"FOX-1CLIFF (AO-95)","OBJECT_ID":"2018-099N","EPOCH":"2026-03-13T02:55:46.455744","MEAN_MOTION":15.24512623,"ECCENTRICITY":0.00080836,"INCLINATION":97.451,"RA_OF_ASC_NODE":132.8256,"ARG_OF_PERICENTER":333.7998,"MEAN_ANOMALY":26.2829,"EPHEMERIS_TYPE":0,"CLASSIFICATION_TYPE":"U","NORAD_CAT_ID":43770,"ELEMENT_SET_NO":999,"REV_AT_EPOCH":39857,"BSTAR":0.0005568812,"MEAN_MOTION_DOT":0.00013648,"MEAN_MOTION_DDOT":0},{"OBJECT_NAME":"2018-099Q","OBJECT_ID":"2018-099Q","EPOCH":"2026-03-14T11:02:53.836512","MEAN_MOTION":15.58575878,"ECCENTRICITY":0.00028025,"INCLINATION":97.4299,"RA_OF_ASC_NODE":149.059,"ARG_OF_PERICENTER":199.8342,"MEAN_ANOMALY":160.2805,"EPHEMERIS_TYPE":0,"CLASSIFICATION_TYPE":"U","NORAD_CAT_ID":43772,"ELEMENT_SET_NO":999,"REV_AT_EPOCH":39979,"BSTAR":0.0013888431,"MEAN_MOTION_DOT":0.00107451,"MEAN_MOTION_DDOT":0},{"OBJECT_NAME":"RANGE-A","OBJECT_ID":"2018-099R","EPOCH":"2026-03-14T14:26:18.883680","MEAN_MOTION":15.12518534,"ECCENTRICITY":0.00092874,"INCLINATION":97.4102,"RA_OF_ASC_NODE":118.947,"ARG_OF_PERICENTER":321.2149,"MEAN_ANOMALY":38.8414,"EPHEMERIS_TYPE":0,"CLASSIFICATION_TYPE":"U","NORAD_CAT_ID":43773,"ELEMENT_SET_NO":999,"REV_AT_EPOCH":39819,"BSTAR":0.00042743456,"MEAN_MOTION_DOT":7.391e-5,"MEAN_MOTION_DDOT":0},{"OBJECT_NAME":"SNUSAT-2","OBJECT_ID":"2018-099AA","EPOCH":"2026-03-14T14:28:58.110240","MEAN_MOTION":15.20278037,"ECCENTRICITY":0.00089622,"INCLINATION":97.4192,"RA_OF_ASC_NODE":128.4901,"ARG_OF_PERICENTER":264.9343,"MEAN_ANOMALY":95.0869,"EPHEMERIS_TYPE":0,"CLASSIFICATION_TYPE":"U","NORAD_CAT_ID":43782,"ELEMENT_SET_NO":999,"REV_AT_EPOCH":39865,"BSTAR":0.00058794369,"MEAN_MOTION_DOT":0.00012722,"MEAN_MOTION_DDOT":0},{"OBJECT_NAME":"SNUGLITE","OBJECT_ID":"2018-099AC","EPOCH":"2026-03-14T14:16:02.828352","MEAN_MOTION":15.24984409,"ECCENTRICITY":0.00014418,"INCLINATION":97.4001,"RA_OF_ASC_NODE":128.899,"ARG_OF_PERICENTER":243.2088,"MEAN_ANOMALY":116.9003,"EPHEMERIS_TYPE":0,"CLASSIFICATION_TYPE":"U","NORAD_CAT_ID":43784,"ELEMENT_SET_NO":999,"REV_AT_EPOCH":39889,"BSTAR":0.00069432567,"MEAN_MOTION_DOT":0.00017271,"MEAN_MOTION_DDOT":0}]
